{
  "type": "FeatureCollection",
  "features": [
    {
      "type": "Feature",
      "properties": {
        "norad_id": 64903,
        "name": "CO3D 1",
        "group": "resource",
        "lat": 45.768213701066735,
        "lon": -97.25572730135285,
        "alt_km": 500.9400125376633,
        "timestamp": "2025-12-24T22:42:21.680248+00:00",
        "meta_object_name": "CO3D 1",
        "meta_object_id": "2025-156E",
        "meta_epoch": "2025-12-24T06:19:22.284768",
        "meta_mean_motion": 15.20211929,
        "meta_eccentricity": 9.017e-05,
        "meta_inclination": 97.4337,
        "meta_ra_of_asc_node": 74.364,
        "meta_arg_of_pericenter": 77.1772,
        "meta_mean_anomaly": 282.9564,
        "meta_ephemeris_type": 0,
        "meta_classification_type": "U",
        "meta_norad_cat_id": 64903,
        "meta_element_set_no": 999,
        "meta_rev_at_epoch": 2295,
        "meta_bstar": 0.00032889335,
        "meta_mean_motion_dot": 7.061e-05,
        "meta_mean_motion_ddot": 0,
        "tle_line1": "1 64903U 25156E   25358.26345237  .00007061  00000+0  32889-3 0  9992",
        "tle_line2": "2 64903  97.4337  74.3640 0000901  77.1772 282.9564 15.20211929 22958"
      },
      "geometry": {
        "type": "Point",
        "coordinates": [
          -97.25572730135285,
          45.768213701066735
        ]
      }
    },
    {
      "type": "Feature",
      "properties": {
        "norad_id": 66514,
        "name": "SENTINEL-6B",
        "group": "resource",
        "lat": -35.726714239474624,
        "lon": -24.265571407398543,
        "alt_km": 1339.085917455276,
        "timestamp": "2025-12-24T22:42:21.680258+00:00",
        "meta_object_name": "SENTINEL-6B",
        "meta_object_id": "2025-264A",
        "meta_epoch": "2025-12-23T02:27:52.423776",
        "meta_mean_motion": 12.8092954,
        "meta_eccentricity": 0.00078893,
        "meta_inclination": 66.0396,
        "meta_ra_of_asc_node": 140.9099,
        "meta_arg_of_pericenter": 269.9741,
        "meta_mean_anomaly": 90.037,
        "meta_ephemeris_type": 0,
        "meta_classification_type": "U",
        "meta_norad_cat_id": 66514,
        "meta_element_set_no": 999,
        "meta_rev_at_epoch": 461,
        "meta_bstar": -1.0381303e-05,
        "meta_mean_motion_dot": -6.3e-07,
        "meta_mean_motion_ddot": 0,
        "tle_line1": "1 66514U 25264A   25357.10269009 -.00000063  00000+0 -10381-4 0  9997",
        "tle_line2": "2 66514  66.0396 140.9099 0007889 269.9741  90.0370 12.80929540  4616"
      },
      "geometry": {
        "type": "Point",
        "coordinates": [
          -24.265571407398543,
          -35.726714239474624
        ]
      }
    }
  ]
}